0 ANTARES R/B
1 39259U 13051B   13268.82863324  .00445888  10688-3  54214-3 0   302
2 39259 051.6095 326.8797 0007929 172.9420 187.1869 16.07449477  1167
0 ANTARES R/B
1 39259U 13051B   13269.20156982  .00468280  11790-3  55585-3 0   319
2 39259 051.6094 324.8655 0007524 172.1254 187.9912 16.07830650  1226
0 ANTARES R/B
1 39259U 13051B   13269.38801251  .00475762  12185-3  55815-3 0   323
2 39259 051.6089 323.8586 0007428 172.9376 187.1751 16.08014675  1256
0 ANTARES R/B
1 39259U 13051B   13269.69870876  .00485358  12718-3  55851-3 0   331
2 39259 051.6089 322.1798 0007242 174.7639 185.3455 16.08317652  1307
0 ANTARES R/B
1 39259U 13051B   13269.88509829  .00490531  13016-3  55804-3 0   349
2 39259 051.6091 321.1727 0006926 175.2451 184.8539 16.08500130  1332
0 ANTARES R/B
1 39259U 13051B   13270.19570614  .00497076  13416-3  55450-3 0   358
2 39259 051.6090 319.4929 0007033 178.5929 181.5071 16.08801203  1386
0 ANTARES R/B
1 39259U 13051B   13270.50625838  .00502721  13777-3  55019-3 0   368
2 39259 051.6087 317.8113 0006582 181.5987 178.5004 16.09102263  1434
0 ANTARES R/B
1 39259U 13051B   13270.81674471  .00508077  14132-3  54591-3 0   370
2 39259 051.6093 316.1345 0004964 176.7840 183.2592 16.09406477  1480
0 ANTARES R/B
1 39259U 13051B   13271.18927767  .00507920  14201-3  53263-3 0   389
2 39259 051.6100 314.1204 0006769 180.9583 179.1376 16.09752508  1547
0 ANTARES R/B
1 39259U 13051B   13271.49964797  .00512892  14544-3  52740-3 0   391
2 39259 051.6089 312.4395 0006388 186.0885 174.0047 16.10055955  1592
0 ANTARES R/B
1 39259U 13051B   13271.87200660  .00522721  15189-3  52447-3 0   409
2 39259 051.6090 310.4200 0005746 192.4430 167.6394 16.10436073  1655
0 ANTARES R/B
1 39259U 13051B   13272.18224707  .00526846  15503-3  51753-3 0   414
2 39259 051.6105 308.7403 0006464 184.3012 175.7930 16.10743987  1708
0 ANTARES R/B
1 39259U 13051B   13272.49242062  .00535823  16116-3  51546-3 0   429
2 39259 051.6105 307.0584 0005597 187.9092 172.1831 16.11069180  1756
0 ANTARES R/B
1 39259U 13051B   13272.86453788  .00551559  17186-3  51706-3 0   430
2 39259 051.6068 305.0353 0004640 188.3197 171.7348 16.11465687  1812
0 ANTARES R/B
1 39259U 13051B   13273.23657315  .00563373  18056-3  51375-3 0   441
2 39259 051.6059 303.0145 0004553 190.2288 169.8634 16.11875373  1874
0 ANTARES R/B
1 39259U 13051B   13273.54651905  .00579806  19255-3  51586-3 0   459
2 39259 051.6078 301.3309 0004501 188.8077 171.2911 16.12238971  1929
0 ANTARES R/B
1 39259U 13051B   13273.85639261  .00596558  20537-3  51735-3 0   469
2 39259 051.6075 299.6461 0004717 191.7143 168.3846 16.12611715  1970
0 ANTARES R/B
1 39259U 13051B   13274.22813907  .00622524  22603-3  52284-3 0   472
2 39259 051.6059 297.6238 0004165 192.2302 167.8616 16.13085040  2036
0 ANTARES R/B
1 39259U 13051B   13274.53784613  .00646493  24627-3  52786-3 0   484
2 39259 051.6069 295.9384 0004109 188.3737 171.7289 16.13495221  2087
0 ANTARES R/B
1 39259U 13051B   13274.84747387  .00668266  26598-3  52997-3 0   491
2 39259 051.6065 294.2518 0004349 192.0534 168.0512 16.13912793  2139
0 ANTARES R/B
1 39259U 13051B   13275.21890652  .00705626  30148-3  53902-3 0   504
2 39259 051.6054 292.2265 0003864 197.2373 162.8515 16.14456339  2194
0 ANTARES R/B
1 39259U 13051B   13275.46645980  .00731220  32772-3  54389-3 0   518
2 39259 051.6078 290.8804 0004178 190.7832 169.3096 16.14833606  2237
0 ANTARES R/B
1 39259U 13051B   13275.59021769  .01021604  69728-3  74037-3 0   528
2 39259 051.6059 290.2044 0004555 196.5398 163.7351 16.15273349  2253
0 ANTARES R/B
1 39259U 13051B   13276.20858722  .01074644  80827-3  71214-3 0   534
2 39259 051.6050 286.8240 0003446 206.5453 153.4403 16.16551856  2353
0 ANTARES R/B
1 39259U 13051B   13276.39403066  .01107448  87670-3  71284-3 0   541
2 39259 051.6049 285.8082 0003636 208.5553 151.5273 16.16964288  2382
0 ANTARES R/B
1 39259U 13051B   13276.45586481  .01589524  00000-0  98811-3 0   555
2 39259 051.6064 285.5041 0003797 273.4482 086.6572 16.17128091  2397
0 ANTARES R/B
1 39259U 13051B   13276.51764845  .01553818  00000-0  95561-3 0   572
2 39259 051.6031 285.1515 0003997 204.4157 155.7166 16.17270852  2400
0 ANTARES R/B
1 39259U 13051B   13276.51766792  .00887415  00000-0  55873-3 0   568
2 39259 051.5979 285.1270 0002971 204.2518 155.8846 16.16962575  2403
0 ANTARES R/B
1 39259U 13051B   13276.76478545  .00895317  00000-0  53237-3 0   596
2 39259 051.6003 283.7959 0004553 193.1413 167.0053 16.17717588  2440
0 ANTARES R/B
1 39259U 13051B   13276.88828454  .01093972  87175-3  65494-3 0   550
2 39259 051.6066 283.1100 0003854 197.2550 162.6772 16.17940137  2460
0 ANTARES R/B
1 39259U 13051B   13277.19706205  .01031961  76880-3  59260-3 0   560
2 39259 051.6034 281.4076 0003521 211.4299 148.4471 16.18474472  2517
0 ANTARES R/B
1 39259U 13051B   13277.50576164  .01034904  78528-3  56823-3 0   578
2 39259 051.6031 279.7144 0003597 214.5667 145.5088 16.19069790  2567
0 ANTARES R/B
1 39259U 13051B   13277.50576215  .01031572  77924-3  56648-3 0   588
2 39259 051.6037 279.7154 0003644 215.3196 144.7556 16.19065929  2564
0 ANTARES R/B
1 39259U 13051B   13277.87599512  .00961735  11840-4  49355-3 0   599
2 39259 051.6024 277.6837 0003694 210.0787 149.8831 16.19744763  2627
0 ANTARES R/B
1 39259U 13051B   13278.18441481  .01006570  11858-4  48986-3 0   603
2 39259 051.6030 275.9882 0003884 207.6182 152.4913 16.20422275  2676
0 ANTARES R/B
1 39259U 13051B   13278.43104755  .01121949  11873-4  51973-3 0   617
2 39259 051.6034 274.6297 0004424 206.0472 154.1231 16.21036965  2717
0 ANTARES R/B
1 39259U 13051B   13278.86242120  .01049186  11895-4  45286-3 0   620
2 39259 051.6041 272.2537 0005871 197.8364 162.1459 16.21902642  2782
0 ANTARES R/B
1 39259U 13051B   13279.23197276  .01187159  11925-4  47130-3 0   631
2 39259 051.6011 270.2178 0004006 204.1504 156.0607 16.22953042  2840
0 ANTARES R/B
1 39259U 13051B   13279.47820836  .01216925  11941-4  45756-3 0   647
2 39259 051.6044 268.8598 0004948 187.2709 172.9726 16.23597038  2881
0 ANTARES R/B
1 39259U 13051B   13279.66280025  .01392596  11958-4  49601-3 0   659
2 39259 051.5995 267.8398 0004168 213.3023 146.9512 16.24250201  2913
0 ANTARES R/B
1 39259U 13051B   13279.84731091  .01388923  11976-4  47378-3 0   662
2 39259 051.5996 266.8161 0002855 237.5873 122.4997 16.24775339  2946
0 ANTARES R/B
1 39259U 13051B   13280.09328959  .01572485  11995-4  49779-3 0   673
2 39259 051.5953 265.4569 0003836 221.9639 138.3500 16.25631850  2983
0 ANTARES R/B
1 39259U 13051B   13280.21617597  .01371639  12008-4  42752-3 0   685
2 39259 051.5999 264.7641 0003894 278.4989 081.4476 16.25814338  3003
0 ANTARES R/B
1 39259U 13051B   13280.27765608  .01398384  12008-4  42769-3 0   693
2 39259 051.5959 264.4337 0003378 231.7127 128.4475 16.26036936  3014
0 ANTARES R/B
1 39259U 13051B   13280.46197902  .01529159  12029-4  43762-3 0   705
2 39259 051.5959 263.4107 0003252 232.4757 127.8943 16.26791496  3041
0 ANTARES R/B
1 39259U 13051B   13280.95311880  .02244512  12091-4  50913-3 0   716
2 39259 051.5936 260.6815 0004272 224.1698 137.2030 16.29322389  3121
0 ANTARES R/B
1 39259U 13051B   13281.01422314  .02629671  12099-4  57768-3 0   726
2 39259 051.5936 260.3408 0004189 224.4240 135.6526 16.29662279  3137
0 ANTARES R/B
1 39259U 13051B   13281.19812406  .02595626  12127-4  51814-3 0   731
2 39259 051.5936 259.3145 0003899 225.1895 134.9160 16.30670831  3168
0 ANTARES R/B
1 39259U 13051B   13281.38190733  .02730535  12156-4  49129-3 0   743
2 39259 051.5936 258.2873 0003619 225.9555 134.1880 16.31738330  3199
0 ANTARES R/B
1 39259U 13051B   13281.62675832  .03099662  12195-4  46989-3 0   753
2 39259 051.5929 256.9147 0005139 226.6390 133.6920 16.33410685  3230
0 ANTARES R/B
1 39259U 13051B   13281.99352555  .03692713  12292-4  41022-3 0   765
2 39259 051.5914 254.8597 0000510 223.8724 136.8041 16.36374277  3292
0 ANTARES R/B
1 39259U 13051B   13282.11552828  .05220020  12364-4  46734-3 0   771
2 39259 051.5971 254.1619 0004356 284.7498 075.7605 16.38231693  3315
0 ANTARES R/B
1 39259U 13051B   13282.29833924  .07767272  12428-4  47452-3 0   786
2 39259 051.5966 253.1299 0003833 262.6696 097.9069 16.41372580  3344
0 ANTARES R/B
1 39259U 13051B   13282.35911593  .07791368  12488-4  41565-3 0   791
2 39259 051.5865 252.7847 0003404 293.5813 066.5424 16.42424580  3351
0 ANTARES R/B
1 39259U 13051B   13282.48072120  .10792085  12537-4  29909-3 0   805
2 39259 051.5886 252.0993 0003007 252.7636 107.6705 16.45520484  3372
0 ANTARES R/B
1 39259U 13051B   13282.60201954  .15993494  12788-4  15583-3 0   812
2 39259 051.6392 251.3330 0006752 037.1767 323.9170 16.50695559  3395
